{
  "type": "FeatureCollection",
  "starshine:crs": "EPSG:3857",
  "features": [
    {
      "type": "Feature",
      "properties": {"zone_id": "central-review"},
      "geometry": {
        "type": "Polygon",
        "coordinates": [[[5, -2], [15, -2], [15, 12], [5, 12], [5, -2]]]
      }
    },
    {
      "type": "Feature",
      "properties": {"zone_id": "east-boundary"},
      "geometry": {
        "type": "Polygon",
        "coordinates": [[[20, 0], [30, 0], [30, 10], [20, 10], [20, 0]]]
      }
    }
  ]
}
